[{"OBJECT_NAME":"STARLINK-3950","OBJECT_ID":"2022-086Y","EPOCH":"2026-03-09T14:33:29.159136","MEAN_MOTION":15.0884006,"ECCENTRICITY":0.0001218,"INCLINATION":53.2182,"RA_OF_ASC_NODE":194.4956,"ARG_OF_PERICENTER":91.7497,"MEAN_ANOMALY":268.3634,"EPHEMERIS_TYPE":0,"CLASSIFICATION_TYPE":"U","NORAD_CAT_ID":53264,"ELEMENT_SET_NO":999,"REV_AT_EPOCH":20105,"BSTAR":1.205e-5,"MEAN_MOTION_DOT":-9.6e-7,"MEAN_MOTION_DDOT":0},{"OBJECT_NAME":"CZ-2D R\/B","OBJECT_ID":"2010-027B","EPOCH":"2026-03-09T19:01:31.304352","MEAN_MOTION":15.02332282,"ECCENTRICITY":0.00475082,"INCLINATION":97.9913,"RA_OF_ASC_NODE":95.0303,"ARG_OF_PERICENTER":252.3591,"MEAN_ANOMALY":107.2442,"EPHEMERIS_TYPE":0,"CLASSIFICATION_TYPE":"U","NORAD_CAT_ID":36597,"ELEMENT_SET_NO":999,"REV_AT_EPOCH":85595,"BSTAR":0.00022535675,"MEAN_MOTION_DOT":2.983e-5,"MEAN_MOTION_DDOT":0}]
